LEMUR-1                 
1 40044U 14033AL  26162.70217889  .00002154  00000+0  25194-3 0  9997
2 40044  97.7866 312.6298 0049747  96.1527 264.5359 14.85225201644658
LEMUR-2-GREENBERG       
1 42837U 17042N   26162.46705247  .00013082  00000+0  43649-3 0  9992
2 42837  97.3816 343.1197 0009064  33.8606 326.3213 15.31150950487518
LEMUR-2-ANDIS           
1 42838U 17042P   26162.44415079  .00016909  00000+0  50534-3 0  9994
2 42838  97.3677 343.2616 0008650  32.9058 327.2722 15.34617951487575
LEMUR-2-MONSON          
1 42839U 17042Q   26162.00500459  .00012667  00000+0  46797-3 0  9997
2 42839  97.4076 342.6414 0006828  27.7700 332.3903 15.27848617487227
LEMUR-2-FURIAUS         
1 42840U 17042R   26162.45680124  .00014890  00000+0  51338-3 0  9993
2 42840  97.3767 341.0779 0008429  86.5295 273.6910 15.30063384487334
LEMUR-2-PETERG          
1 42841U 17042S   26162.48996125  .00019411  00000+0  59777-3 0  9997
2 42841  97.3985 347.5128 0003709  19.1907 340.9475 15.33668998487568
LEMUR-2-DEMBITZ         
1 42842U 17042T   26162.73845015  .00014174  00000+0  48804-3 0  9997
2 42842  97.3818 344.3768 0007214  46.8214 313.3628 15.30127528487517
LEMUR-2-ZACHARY         
1 42845U 17042W   26162.50899728  .00043450  00000+0  77989-3 0  9990
2 42845  97.3605 354.0277 0003307  54.1443 306.0115 15.49775357488321
LEMUR-2-AMANDA-SVANTE   
1 48269U 21034B   26162.16106586  .00025885  00000+0  78927-3 0  9992
2 48269  97.5765 240.2895 0001546 230.7421 129.3685 15.33932852280134
LEMUR-2-SPECIAL-K       
1 48273U 21034F   26162.77408187  .00136195  00000+0  14852-2 0  9999
2 48273  97.5653 249.2456 0003644 232.3718 127.7210 15.62930778280846
LEMUR-2-EMBRIONOVIS     
1 56970U 23084AQ  26162.66965167  .00012587  00000+0  34502-3 0  9996
2 56970  97.6276 306.6585 0008086 342.0602  18.0355 15.37411627166831
LEMUR-2-DEVERILL-M-T    
1 57391U 23100F   26162.64562477  .00025011  00000+0  63865-3 0  9998
2 57391  99.4479 199.8044 0006839  67.9440 292.2525 15.39480928160395
LEMUR-2-BASS            
1 58259U 23174D   26162.69794865  .00016125  00000+0  36834-3 0  9998
2 58259  97.3849 247.3342 0007333 179.9665 180.1584 15.42911399144511
LEMUR-2-JK0903EM1407    
1 58336U 23174CJ  26162.79074652  .00025699  00000+0  43695-3 0  9999
2 58336  97.3919 253.1102 0005959 135.0332 225.1403 15.51402886144897
LEMUR-2-MJR092620       
1 58340U 23174CN  26162.78233058  .00018229  00000+0  39210-3 0  9999
2 58340  97.3975 252.7125 0007089 133.4041 226.7799 15.44676410144814
LEMUR-2-NIMBUS2000      
1 58899U 24022A   26162.55541061  .00015905  00000+0  40213-3 0  9995
2 58899  97.4121  12.4872 0010140 133.1211 227.0884 15.39817873131409
LEMUR-2-VALHALLA        
1 58900U 24022B   26162.55046247  .00015285  00000+0  39049-3 0  9990
2 58900  97.4118  12.4759 0010714 129.4736 230.7459 15.39502964131400
LEMUR-2-OBA-NI-JESU     
1 58902U 24022D   26162.60877458  .02495421  24271-5  12571-2 0  9992
2 58902  97.3664  27.5729 0006471 226.2338 133.8417 16.20690476132438
LEMUR-2-CAEL            
1 58903U 24022E   26162.56502850  .00016239  00000+0  39772-3 0  9994
2 58903  97.4101  13.4168 0009243 114.1190 246.1024 15.40792674131477
LEMUR-2-JOHNNYTRUONG    
1 59146U 24043BA  26162.37796716  .00033242  00000+0  41128-3 0  9993
2 59146  97.5365 313.7241 0004625 193.4171 166.6963 15.60030991127131
LEMUR-2-TOMATOKECHUP    
1 60471U 24149D   26162.70010632  .00010217  00000+0  29452-3 0  9999
2 60471  97.3800 244.7331 0000895 188.9274 171.1954 15.35915397101325
LEMUR-2-STELLA          
1 60533U 24149BT  26162.78657705  .00010966  00000+0  64754-3 0  9999
2 60533  97.6735 245.2178 0001622  99.3793 260.7620 15.11690092 99685
LEMUR-2-MARHISYAM       
1 60536U 24149BW  26162.69872707  .00009790  00000+0  58730-3 0  9993
2 60536  97.6884 245.5732 0003235 128.0065 232.1457 15.11148375 99656
LEMUR-2-AHMED-ASRAR     
1 60576U 24149DN  26162.73811628  .00010600  00000+0  61072-3 0  9992
2 60576  97.7002 247.6847 0002235  55.3889 304.7552 15.12588501 99740
LEMUR-2-LLOYD           
1 60577U 24149DP  26162.73808280  .00008788  00000+0  55749-3 0  9991
2 60577  97.6752 243.8645 0004726 152.0786 208.0697 15.09133840 99579
LEMUR-2-SQUIRRELCOMM    
1 60578U 24149DQ  26162.67840080  .00005337  00000+0  35953-3 0  9991
2 60578  97.6716 243.6072 0006978  77.7014 282.4994 15.07091230 99570
LEMUR-2-SIERRINI        
1 60579U 24149DR  26162.58864439  .00010701  00000+0  64713-3 0  9993
2 60579  97.6837 245.1560 0005399 183.1230 176.9967 15.10825559 99617
LEMUR-2-WILSON          
1 62694U 25009CP  26162.47336023  .00001639  00000+0  15453-3 0  9997
2 62694  97.7023 241.0382 0004348  69.2130 290.9556 14.95139148 76506
LEMUR-2-STAR-FOX        
1 62696U 25009CR  26162.69827512  .00007432  00000+0  56510-3 0  9997
2 62696  97.6955 244.3464 0003257 125.6564 234.4964 15.02422719 76733
LEMUR-2-ARIANNA         
1 62699U 25009CU  26162.69654619  .00007450  00000+0  56677-3 0  9990
2 62699  97.6893 244.1235 0003594 132.2695 227.8834 15.02403406 76738
