OBJECT_NAME,OBJECT_ID,EPOCH,MEAN_MOTION,ECCENTRICITY,INCLINATION,RA_OF_ASC_NODE,ARG_OF_PERICENTER,MEAN_ANOMALY,EPHEMERIS_TYPE,CLASSIFICATION_TYPE,NORAD_CAT_ID,ELEMENT_SET_NO,REV_AT_EPOCH,BSTAR,MEAN_MOTION_DOT,MEAN_MOTION_DDOT
LEMUR-1,2014-033AL,2026-06-11T16:51:08.256096,14.85225201,.0049747,97.7866,312.6298,96.1527,264.5359,0,U,40044,999,64465,.25194E-3,.2154E-4,0
LEMUR-2-GREENBERG,2017-042N,2026-06-11T11:12:33.333408,15.31150950,.0009064,97.3816,343.1197,33.8606,326.3213,0,U,42837,999,48751,.43649E-3,.13082E-3,0
LEMUR-2-ANDIS,2017-042P,2026-06-11T10:39:34.628256,15.34617951,.000865,97.3677,343.2616,32.9058,327.2722,0,U,42838,999,48757,.50534E-3,.16909E-3,0
LEMUR-2-MONSON,2017-042Q,2026-06-11T00:07:12.396576,15.27848617,.00068284,97.4076,342.6414,27.7700,332.3903,0,U,42839,999,48722,.46797081E-3,.12667E-3,0
LEMUR-2-FURIAUS,2017-042R,2026-06-11T10:57:47.627136,15.30063384,.0008429,97.3767,341.0779,86.5295,273.6910,0,U,42840,999,48733,.51338E-3,.1489E-3,0
LEMUR-2-PETERG,2017-042S,2026-06-11T11:45:32.652000,15.33668998,.0003709,97.3985,347.5128,19.1907,340.9475,0,U,42841,999,48756,.59777E-3,.19411E-3,0
LEMUR-2-DEMBITZ,2017-042T,2026-06-11T17:43:22.092960,15.30127528,.0007214,97.3818,344.3768,46.8214,313.3628,0,U,42842,999,48751,.48804E-3,.14174E-3,0
LEMUR-2-ZACHARY,2017-042W,2026-06-11T12:12:57.364992,15.49775357,.0003307,97.3605,354.0277,54.1443,306.0115,0,U,42845,999,48832,.77989E-3,.4345E-3,0
LEMUR-2-AMANDA-SVANTE,2021-034B,2026-06-11T03:51:56.090304,15.33932852,.00015466,97.5765,240.2895,230.7421,129.3685,0,U,48269,999,28013,.78927463E-3,.25885E-3,0
LEMUR-2-SPECIAL-K,2021-034F,2026-06-11T18:34:40.673568,15.62930778,.0003644,97.5653,249.2456,232.3718,127.7210,0,U,48273,999,28084,.14852E-2,.136195E-2,0
LEMUR-2-EMBRIONOVIS,2023-084AQ,2026-06-11T16:04:17.904288,15.37411627,.0008086,97.6276,306.6585,342.0602,18.0355,0,U,56970,999,16683,.34502E-3,.12587E-3,0
LEMUR-2-DEVERILL-M-T,2023-100F,2026-06-11T15:29:41.980128,15.39480928,.0006839,99.4479,199.8044,67.9440,292.2525,0,U,57391,999,16039,.63865E-3,.25011E-3,0
LEMUR-2-BASS,2023-174D,2026-06-11T16:45:02.763360,15.42911399,.0007333,97.3849,247.3342,179.9665,180.1584,0,U,58259,999,14451,.36834E-3,.16125E-3,0
LEMUR-2-JK0903EM1407,2023-174CJ,2026-06-11T18:58:40.499328,15.51402886,.0005959,97.3919,253.1102,135.0332,225.1403,0,U,58336,999,14489,.43695E-3,.25699E-3,0
LEMUR-2-MJR092620,2023-174CN,2026-06-11T18:46:33.362112,15.44676410,.0007089,97.3975,252.7125,133.4041,226.7799,0,U,58340,999,14481,.3921E-3,.18229E-3,0
LEMUR-2-NIMBUS2000,2024-022A,2026-06-11T13:19:47.476704,15.39817873,.001014,97.4121,12.4872,133.1211,227.0884,0,U,58899,999,13140,.40213E-3,.15905E-3,0
LEMUR-2-VALHALLA,2024-022B,2026-06-11T13:12:39.957408,15.39502964,.0010714,97.4118,12.4759,129.4736,230.7459,0,U,58900,999,13140,.39049E-3,.15285E-3,0
LEMUR-2-OBA-NI-JESU,2024-022D,2026-06-11T14:36:38.123712,16.20690476,.0006471,97.3664,27.5729,226.2338,133.8417,0,U,58902,999,13243,.12571E-2,.2495421E-1,.24271E-5
LEMUR-2-CAEL,2024-022E,2026-06-11T13:33:38.462400,15.40792674,.0009243,97.4101,13.4168,114.1190,246.1024,0,U,58903,999,13147,.39772E-3,.16239E-3,0
LEMUR-2-JOHNNYTRUONG,2024-043BA,2026-06-11T09:04:16.362624,15.60030991,.0004625,97.5365,313.7241,193.4171,166.6963,0,U,59146,999,12713,.41128E-3,.33242E-3,0
LEMUR-2-TOMATOKECHUP,2024-149D,2026-06-11T16:48:09.186048,15.35915397,.0000895,97.3800,244.7331,188.9274,171.1954,0,U,60471,999,10132,.29452E-3,.10217E-3,0
LEMUR-2-STELLA,2024-149BT,2026-06-11T18:52:40.257120,15.11690092,.0001622,97.6735,245.2178,99.3793,260.7620,0,U,60533,999,9968,.64754E-3,.10966E-3,0
LEMUR-2-MARHISYAM,2024-149BW,2026-06-11T16:46:10.018848,15.11148375,.0003235,97.6884,245.5732,128.0065,232.1457,0,U,60536,999,9965,.5873E-3,.979E-4,0
LEMUR-2-AHMED-ASRAR,2024-149DN,2026-06-11T17:42:53.246592,15.12588501,.0002235,97.7002,247.6847,55.3889,304.7552,0,U,60576,999,9974,.61072E-3,.106E-3,0
LEMUR-2-LLOYD,2024-149DP,2026-06-11T17:42:50.353920,15.09133840,.0004726,97.6752,243.8645,152.0786,208.0697,0,U,60577,999,9957,.55749E-3,.8788E-4,0
LEMUR-2-SQUIRRELCOMM,2024-149DQ,2026-06-11T16:16:53.829120,15.07091230,.0006978,97.6716,243.6072,77.7014,282.4994,0,U,60578,999,9957,.35953E-3,.5337E-4,0
LEMUR-2-SIERRINI,2024-149DR,2026-06-11T14:07:38.875296,15.10825559,.0005399,97.6837,245.1560,183.1230,176.9967,0,U,60579,999,9961,.64713E-3,.10701E-3,0
LEMUR-2-WILSON,2025-009CP,2026-06-11T11:21:38.323872,14.95139148,.0004348,97.7023,241.0382,69.2130,290.9556,0,U,62694,999,7650,.15453E-3,.1639E-4,0
LEMUR-2-STAR-FOX,2025-009CR,2026-06-11T16:45:30.970368,15.02422719,.0003257,97.6955,244.3464,125.6564,234.4964,0,U,62696,999,7673,.5651E-3,.7432E-4,0
LEMUR-2-ARIANNA,2025-009CU,2026-06-11T16:43:01.590816,15.02403406,.0003594,97.6893,244.1235,132.2695,227.8834,0,U,62699,999,7673,.56677E-3,.745E-4,0
